SL-6 R/B(2)             
1 29261U 06030B   26115.04405630  .00000031  00000+0  38335-2 0  9993
2 29261  61.7497 171.8595 7092862 261.8809  19.3739  2.05489989148188
EUTELSAT 33F            
1 29270U 06032A   26116.50056654  .00000145  00000+0  00000+0 0  9996
2 29270   1.5298  82.7751 0003534 313.1429  31.8951  1.00274400 46785
JCSAT-3A                
1 29272U 06033A   26116.53629881 -.00000357  00000+0  00000+0 0  9996
2 29272   0.0450  69.9740 0002022 323.2996 142.3255  1.00271051 47222
KOREASAT 5 (MUGUNGWHA 5)
1 29349U 06034A   26116.44509181 -.00000369  00000+0  00000+0 0  9995
2 29349   1.6537  83.5935 0001633 339.1601  64.9788  1.00272359 40803
ZHONGXING-22A           
1 29398U 06038A   26116.46347302  .00000105  00000+0  00000+0 0  9997
2 29398  11.4031  37.7861 0000656  33.1232 156.2844  1.00087350 71862
DIRECTV 9S              
1 29494U 06043A   26116.47395976 -.00000124  00000+0  00000+0 0  9993
2 29494   2.2893  81.4927 0004176 329.4561 232.9478  1.00271630 50867
OPTUS D1                
1 29495U 06043B   26116.45280515 -.00000193  00000+0  00000+0 0  9990
2 29495   2.9037  80.2638 0003912 314.0155 135.1803  1.00271553 71602
BLOCK DM-SL R/B         
1 29521U 06049B   26116.40504193 -.00000106  00000+0  00000+0 0  9996
2 29521   0.6928  34.7414 6946380  46.0068 218.8145  2.18870893155803
BADR-4                  
1 29526U 06051A   26116.49926654  .00000135  00000+0  00000+0 0  9994
2 29526   1.8734  81.6379 0005956 299.5870  39.3312  1.00271555 50741
BREEZE-M R/B            
1 29527U 06051B   26110.55479146  .00000007  00000+0  00000+0 0  9993
2 29527  14.7853 352.7357 6343034 275.1364  20.1611  2.09456134148769
FENGYUN 2D AKM          
1 29642U 06053C   26115.64010016 -.00000332  00000+0  00000+0 0  9997
2 29642  11.7132  38.2528 0107843  45.5445 156.1730  0.99360095 45731
WILDBLUE-1              
1 29643U 06054A   26116.48586323 -.00000059  00000+0  00000+0 0  9997
2 29643   2.6717  81.1052 0001567 307.1815 249.9165  1.00272225 53274
MEASAT-3                
1 29648U 06056A   26116.51009991 -.00000044  00000+0  00000+0 0  9993
2 29648   4.5985  76.7721 0004142 245.3441 157.3432  0.99738959 49878
TITAN 3C TRANSTAGE DEB  
1 30000U 68081J   26116.34755917 -.00000144  00000+0  00000+0 0  9991
2 30000   1.8172  41.6019 0128313 321.8948 317.3945  1.00904167 78711
BEIDOU-1 G4             
1 30323U 07003A   26115.64025339 -.00000283  00000+0  00000+0 0  9990
2 30323   9.7715  57.5038 0055421 273.9407 269.9350  0.99159809 70189
THEMIS A                
1 30580U 07004A   26116.26795080  .00000066  00000+0  46127-2 0  9993
2 30580   7.6210 114.2847 8382319 189.0159 126.3251  0.87844770 40827
SKYNET 5A               
1 30794U 07007B   26116.48713208 -.00000280  00000+0  00000+0 0  9995
2 30794   5.1705  74.3516 0004046 331.2063  79.5398  1.00273080 70189
