[{"OBJECT_NAME":"SL-6 R/B(2)","OBJECT_ID":"2006-030B","EPOCH":"2026-04-25T01:03:26.464320","MEAN_MOTION":2.05489989,"ECCENTRICITY":0.70928625,"INCLINATION":61.7497,"RA_OF_ASC_NODE":171.8595,"ARG_OF_PERICENTER":261.8809,"MEAN_ANOMALY":19.3739,"EPHEMERIS_TYPE":0,"CLASSIFICATION_TYPE":"U","NORAD_CAT_ID":29261,"ELEMENT_SET_NO":999,"REV_AT_EPOCH":14818,"BSTAR":0.0038335331,"MEAN_MOTION_DOT":3.1e-7,"MEAN_MOTION_DDOT":0},{"OBJECT_NAME":"EUTELSAT 33F","OBJECT_ID":"2006-032A","EPOCH":"2026-04-26T12:00:48.949056","MEAN_MOTION":1.002744,"ECCENTRICITY":0.0003534,"INCLINATION":1.5298,"RA_OF_ASC_NODE":82.7751,"ARG_OF_PERICENTER":313.1429,"MEAN_ANOMALY":31.8951,"EPHEMERIS_TYPE":0,"CLASSIFICATION_TYPE":"U","NORAD_CAT_ID":29270,"ELEMENT_SET_NO":999,"REV_AT_EPOCH":4678,"BSTAR":0,"MEAN_MOTION_DOT":1.45e-6,"MEAN_MOTION_DDOT":0},{"OBJECT_NAME":"JCSAT-3A","OBJECT_ID":"2006-033A","EPOCH":"2026-04-26T12:52:16.217184","MEAN_MOTION":1.00271051,"ECCENTRICITY":0.0002022,"INCLINATION":0.045,"RA_OF_ASC_NODE":69.974,"ARG_OF_PERICENTER":323.2996,"MEAN_ANOMALY":142.3255,"EPHEMERIS_TYPE":0,"CLASSIFICATION_TYPE":"U","NORAD_CAT_ID":29272,"ELEMENT_SET_NO":999,"REV_AT_EPOCH":4722,"BSTAR":0,"MEAN_MOTION_DOT":-3.57e-6,"MEAN_MOTION_DDOT":0},{"OBJECT_NAME":"KOREASAT 5 (MUGUNGWHA 5)","OBJECT_ID":"2006-034A","EPOCH":"2026-04-26T10:40:55.932384","MEAN_MOTION":1.00272359,"ECCENTRICITY":0.0001633,"INCLINATION":1.6537,"RA_OF_ASC_NODE":83.5935,"ARG_OF_PERICENTER":339.1601,"MEAN_ANOMALY":64.9788,"EPHEMERIS_TYPE":0,"CLASSIFICATION_TYPE":"U","NORAD_CAT_ID":29349,"ELEMENT_SET_NO":999,"REV_AT_EPOCH":4080,"BSTAR":0,"MEAN_MOTION_DOT":-3.69e-6,"MEAN_MOTION_DDOT":0},{"OBJECT_NAME":"ZHONGXING-22A","OBJECT_ID":"2006-038A","EPOCH":"2026-04-26T11:07:24.068928","MEAN_MOTION":1.0008735,"ECCENTRICITY":6.56e-5,"INCLINATION":11.4031,"RA_OF_ASC_NODE":37.7861,"ARG_OF_PERICENTER":33.1232,"MEAN_ANOMALY":156.2844,"EPHEMERIS_TYPE":0,"CLASSIFICATION_TYPE":"U","NORAD_CAT_ID":29398,"ELEMENT_SET_NO":999,"REV_AT_EPOCH":7186,"BSTAR":0,"MEAN_MOTION_DOT":1.05e-6,"MEAN_MOTION_DDOT":0},{"OBJECT_NAME":"DIRECTV 9S","OBJECT_ID":"2006-043A","EPOCH":"2026-04-26T11:22:30.123264","MEAN_MOTION":1.0027163,"ECCENTRICITY":0.0004176,"INCLINATION":2.2893,"RA_OF_ASC_NODE":81.4927,"ARG_OF_PERICENTER":329.4561,"MEAN_ANOMALY":232.9478,"EPHEMERIS_TYPE":0,"CLASSIFICATION_TYPE":"U","NORAD_CAT_ID":29494,"ELEMENT_SET_NO":999,"REV_AT_EPOCH":5086,"BSTAR":0,"MEAN_MOTION_DOT":-1.24e-6,"MEAN_MOTION_DDOT":0},{"OBJECT_NAME":"OPTUS D1","OBJECT_ID":"2006-043B","EPOCH":"2026-04-26T10:52:02.364960","MEAN_MOTION":1.00271553,"ECCENTRICITY":0.0003912,"INCLINATION":2.9037,"RA_OF_ASC_NODE":80.2638,"ARG_OF_PERICENTER":314.0155,"MEAN_ANOMALY":135.1803,"EPHEMERIS_TYPE":0,"CLASSIFICATION_TYPE":"U","NORAD_CAT_ID":29495,"ELEMENT_SET_NO":999,"REV_AT_EPOCH":7160,"BSTAR":0,"MEAN_MOTION_DOT":-1.93e-6,"MEAN_MOTION_DDOT":0},{"OBJECT_NAME":"BLOCK DM-SL R/B","OBJECT_ID":"2006-049B","EPOCH":"2026-04-26T09:43:15.622752","MEAN_MOTION":2.18870893,"ECCENTRICITY":0.694638,"INCLINATION":0.6928,"RA_OF_ASC_NODE":34.7414,"ARG_OF_PERICENTER":46.0068,"MEAN_ANOMALY":218.8145,"EPHEMERIS_TYPE":0,"CLASSIFICATION_TYPE":"U","NORAD_CAT_ID":29521,"ELEMENT_SET_NO":999,"REV_AT_EPOCH":15580,"BSTAR":0,"MEAN_MOTION_DOT":-1.06e-6,"MEAN_MOTION_DDOT":0},{"OBJECT_NAME":"BADR-4","OBJECT_ID":"2006-051A","EPOCH":"2026-04-26T11:58:56.629056","MEAN_MOTION":1.00271555,"ECCENTRICITY":0.0005956,"INCLINATION":1.8734,"RA_OF_ASC_NODE":81.6379,"ARG_OF_PERICENTER":299.587,"MEAN_ANOMALY":39.3312,"EPHEMERIS_TYPE":0,"CLASSIFICATION_TYPE":"U","NORAD_CAT_ID":29526,"ELEMENT_SET_NO":999,"REV_AT_EPOCH":5074,"BSTAR":0,"MEAN_MOTION_DOT":1.35e-6,"MEAN_MOTION_DDOT":0},{"OBJECT_NAME":"BREEZE-M R/B","OBJECT_ID":"2006-051B","EPOCH":"2026-04-20T13:18:53.982144","MEAN_MOTION":2.09456134,"ECCENTRICITY":0.63430342,"INCLINATION":14.7853,"RA_OF_ASC_NODE":352.7357,"ARG_OF_PERICENTER":275.1364,"MEAN_ANOMALY":20.1611,"EPHEMERIS_TYPE":0,"CLASSIFICATION_TYPE":"U","NORAD_CAT_ID":29527,"ELEMENT_SET_NO":999,"REV_AT_EPOCH":14876,"BSTAR":0,"MEAN_MOTION_DOT":7.0e-8,"MEAN_MOTION_DDOT":0},{"OBJECT_NAME":"FENGYUN 2D AKM","OBJECT_ID":"2006-053C","EPOCH":"2026-04-25T15:21:44.653824","MEAN_MOTION":0.99360095,"ECCENTRICITY":0.01078433,"INCLINATION":11.7132,"RA_OF_ASC_NODE":38.2528,"ARG_OF_PERICENTER":45.5445,"MEAN_ANOMALY":156.173,"EPHEMERIS_TYPE":0,"CLASSIFICATION_TYPE":"U","NORAD_CAT_ID":29642,"ELEMENT_SET_NO":999,"REV_AT_EPOCH":4573,"BSTAR":0,"MEAN_MOTION_DOT":-3.32e-6,"MEAN_MOTION_DDOT":0},{"OBJECT_NAME":"WILDBLUE-1","OBJECT_ID":"2006-054A","EPOCH":"2026-04-26T11:39:38.583072","MEAN_MOTION":1.00272225,"ECCENTRICITY":0.0001567,"INCLINATION":2.6717,"RA_OF_ASC_NODE":81.1052,"ARG_OF_PERICENTER":307.1815,"MEAN_ANOMALY":249.9165,"EPHEMERIS_TYPE":0,"CLASSIFICATION_TYPE":"U","NORAD_CAT_ID":29643,"ELEMENT_SET_NO":999,"REV_AT_EPOCH":5327,"BSTAR":0,"MEAN_MOTION_DOT":-5.9e-7,"MEAN_MOTION_DDOT":0},{"OBJECT_NAME":"MEASAT-3","OBJECT_ID":"2006-056A","EPOCH":"2026-04-26T12:14:32.632224","MEAN_MOTION":0.99738959,"ECCENTRICITY":0.0004142,"INCLINATION":4.5985,"RA_OF_ASC_NODE":76.7721,"ARG_OF_PERICENTER":245.3441,"MEAN_ANOMALY":157.3432,"EPHEMERIS_TYPE":0,"CLASSIFICATION_TYPE":"U","NORAD_CAT_ID":29648,"ELEMENT_SET_NO":999,"REV_AT_EPOCH":4987,"BSTAR":0,"MEAN_MOTION_DOT":-4.4e-7,"MEAN_MOTION_DDOT":0},{"OBJECT_NAME":"TITAN 3C TRANSTAGE DEB","OBJECT_ID":"1968-081J","EPOCH":"2026-04-26T08:20:29.112288","MEAN_MOTION":1.00904167,"ECCENTRICITY":0.0128313,"INCLINATION":1.8172,"RA_OF_ASC_NODE":41.6019,"ARG_OF_PERICENTER":321.8948,"MEAN_ANOMALY":317.3945,"EPHEMERIS_TYPE":0,"CLASSIFICATION_TYPE":"U","NORAD_CAT_ID":30000,"ELEMENT_SET_NO":999,"REV_AT_EPOCH":7871,"BSTAR":0,"MEAN_MOTION_DOT":-1.44e-6,"MEAN_MOTION_DDOT":0},{"OBJECT_NAME":"BEIDOU-1 G4","OBJECT_ID":"2007-003A","EPOCH":"2026-04-25T15:21:57.892896","MEAN_MOTION":0.99159809,"ECCENTRICITY":0.00554213,"INCLINATION":9.7715,"RA_OF_ASC_NODE":57.5038,"ARG_OF_PERICENTER":273.9407,"MEAN_ANOMALY":269.935,"EPHEMERIS_TYPE":0,"CLASSIFICATION_TYPE":"U","NORAD_CAT_ID":30323,"ELEMENT_SET_NO":999,"REV_AT_EPOCH":7018,"BSTAR":0,"MEAN_MOTION_DOT":-2.83e-6,"MEAN_MOTION_DDOT":0},{"OBJECT_NAME":"THEMIS A","OBJECT_ID":"2007-004A","EPOCH":"2026-04-26T06:25:50.949120","MEAN_MOTION":0.8784477,"ECCENTRICITY":0.8382319,"INCLINATION":7.621,"RA_OF_ASC_NODE":114.2847,"ARG_OF_PERICENTER":189.0159,"MEAN_ANOMALY":126.3251,"EPHEMERIS_TYPE":0,"CLASSIFICATION_TYPE":"U","NORAD_CAT_ID":30580,"ELEMENT_SET_NO":999,"REV_AT_EPOCH":4082,"BSTAR":0.0046127,"MEAN_MOTION_DOT":6.6e-7,"MEAN_MOTION_DDOT":0},{"OBJECT_NAME":"SKYNET 5A","OBJECT_ID":"2007-007B","EPOCH":"2026-04-26T11:41:28.211712","MEAN_MOTION":1.0027308,"ECCENTRICITY":0.0004046,"INCLINATION":5.1705,"RA_OF_ASC_NODE":74.3516,"ARG_OF_PERICENTER":331.2063,"MEAN_ANOMALY":79.5398,"EPHEMERIS_TYPE":0,"CLASSIFICATION_TYPE":"U","NORAD_CAT_ID":30794,"ELEMENT_SET_NO":999,"REV_AT_EPOCH":7018,"BSTAR":0,"MEAN_MOTION_DOT":-2.8e-6,"MEAN_MOTION_DDOT":0}]
